{"type":"FeatureCollection","features":[{"type":"Feature","properties":{},"geometry":{"type":"Point","coordinates":[95.67922,46.96777]}},{"type":"Feature","properties":{},"geometry":{"type":"Polygon","coordinates":[[[108.31867,47.71484],[108.30563,47.71946],[108.30045,47.72081],[108.29805,47.72161],[108.30507,47.73779],[108.3079,47.74169],[108.30794,47.74497],[108.30243,47.74863],[108.29945,47.75124],[108.29846,47.75309],[108.29972,47.75528],[108.30084,47.75609],[108.31281,47.76085],[108.31637,47.75928],[108.31799,47.76091],[108.32348,47.75952],[108.32897,47.75721],[108.33258,47.75502],[108.33361,47.7526],[108.33241,47.74867],[108.33241,47.74579],[108.33103,47.74359],[108.33103,47.74082],[108.32811,47.73655],[108.32829,47.73494],[108.3252,47.73297],[108.32535,47.73166],[108.33112,47.73001],[108.33026,47.72672],[108.32479,47.72325],[108.32369,47.7243],[108.32206,47.72411],[108.32253,47.72285],[108.32469,47.71974],[108.32482,47.71858],[108.32396,47.7176],[108.32142,47.71526],[108.32,47.71466],[108.31867,47.71484]]]}},{"type":"Feature","properties":{},"geometry":{"type":"Polygon","coordinates":[[[108.30281,47.71968],[108.32127,47.71291],[108.30917,47.69802],[108.31095,47.69388],[108.30726,47.69139],[108.30322,47.6905],[108.3039,47.68877],[108.30304,47.68762],[108.29978,47.68877],[108.29755,47.68842],[108.29721,47.68611],[108.29274,47.68322],[108.29,47.68091],[108.28485,47.67825],[108.28342,47.67825],[108.28404,47.67674],[108.28355,47.67549],[108.2796,47.67341],[108.27795,47.67347],[108.27582,47.67491],[108.2743,47.67612],[108.27224,47.67575],[108.26978,47.67643],[108.2692,47.67742],[108.26861,47.68065],[108.27157,47.68447],[108.27947,47.69055],[108.28485,47.69568],[108.28627,47.69661],[108.29732,47.72098],[108.30281,47.71968]]]}},{"type":"Feature","properties":{},"geometry":{"type":"Polygon","coordinates":[[[106.43352,49.22089],[106.42871,49.21943],[106.42287,49.21943],[106.41824,49.22044],[106.41086,49.23086],[106.40674,49.23165],[106.40363,49.23166],[106.40071,49.23273],[106.40013,49.23617],[106.40058,49.23741],[106.40293,49.23774],[106.41609,49.23718],[106.4226,49.23559],[106.42711,49.23445],[106.42916,49.22936],[106.43094,49.22771],[106.43257,49.2268],[106.43532,49.22658],[106.44008,49.22718],[106.44092,49.22649],[106.43619,49.22326],[106.44086,49.22056],[106.44006,49.21898],[106.43352,49.22089]]]}},{"type":"Feature","properties":{},"geometry":{"type":"Polygon","coordinates":[[[108.56833,46.23352],[108.56919,46.23468],[108.5702,46.23592],[108.57075,46.23696],[108.57074,46.23783],[108.57082,46.23845],[108.57123,46.23955],[108.57168,46.24066],[108.5725,46.24288],[108.56747,46.24465],[108.56554,46.24518],[108.5605,46.24693],[108.55722,46.24738],[108.54682,46.24898],[108.54451,46.24941],[108.54189,46.24967],[108.53935,46.25008],[108.5383,46.2502],[108.53617,46.25075],[108.5356,46.25083],[108.53516,46.25085],[108.53465,46.2508],[108.53421,46.25064],[108.52538,46.24633],[108.52353,46.24016],[108.51593,46.23084],[108.51248,46.22943],[108.50306,46.22642],[108.5044,46.22362],[108.50656,46.22091],[108.51032,46.21799],[108.51417,46.21522],[108.52378,46.20863],[108.52703,46.21029],[108.52771,46.20907],[108.52887,46.20778],[108.54309,46.20923],[108.54482,46.20969],[108.54626,46.21053],[108.54694,46.21098],[108.54757,46.21143],[108.54825,46.21201],[108.54885,46.21261],[108.55111,46.21407],[108.55244,46.21487],[108.55371,46.21569],[108.55463,46.21635],[108.55557,46.21712],[108.55735,46.21857],[108.55906,46.22004],[108.56073,46.2215],[108.56188,46.22256],[108.5629,46.22365],[108.56381,46.2248],[108.56455,46.22605],[108.56597,46.22856],[108.56626,46.22933],[108.56712,46.23105],[108.56799,46.23256],[108.56833,46.23352]]]}},{"type":"Feature","properties":{},"geometry":{"type":"Polygon","coordinates":[[[114.3584,49.09199],[114.35298,49.09237],[114.34479,49.09778],[114.34233,49.10312],[114.34198,49.10986],[114.34524,49.11424],[114.35125,49.11604],[114.35932,49.1166],[114.36293,49.11424],[114.36533,49.1093],[114.36664,49.09698],[114.36392,49.09372],[114.36768,49.09157],[114.36967,49.08965],[114.37016,49.08656],[114.36871,49.08486],[114.36368,49.08441],[114.3616,49.08625],[114.36046,49.0898],[114.3584,49.09199]]]}},{"type":"Feature","properties":{},"geometry":{"type":"Polygon","coordinates":[[[97.89255,45.37402],[97.89311,45.37445],[97.89398,45.37471],[97.89449,45.37465],[97.89518,45.37426],[97.89564,45.37366],[97.89529,45.37273],[97.8941,45.37231],[97.89288,45.372],[97.89329,45.37309],[97.89269,45.37351],[97.89255,45.37402]]]}},{"type":"Feature","properties":{},"geometry":{"type":"Polygon","coordinates":[[[97.892,45.37739],[97.89123,45.37634],[97.89206,45.37589],[97.89195,45.37522],[97.89345,45.37471],[97.89433,45.37503],[97.89446,45.37589],[97.89402,45.37663],[97.89292,45.37734],[97.892,45.37739]]]}},{"type":"Feature","properties":{},"geometry":{"type":"Polygon","coordinates":[[[107.49691,47.52539],[107.50739,47.52722],[107.5043,47.52945],[107.47608,47.5391],[107.46828,47.54952],[107.46128,47.55418],[107.45819,47.55475],[107.45567,47.56167],[107.45406,47.56452],[107.45323,47.57039],[107.45033,47.57377],[107.44984,47.57351],[107.45011,47.57138],[107.45104,47.56886],[107.45195,47.56207],[107.4558,47.55357],[107.45867,47.55216],[107.45926,47.54957],[107.46345,47.54622],[107.46883,47.54048],[107.47254,47.53655],[107.47858,47.53451],[107.48043,47.53283],[107.4848,47.53046],[107.49302,47.52641],[107.49691,47.52539]]]}},{"type":"Feature","properties":{},"geometry":{"type":"Polygon","coordinates":[[[105.46951,43.64828],[105.46854,43.64667],[105.47946,43.6456],[105.48195,43.64181],[105.48616,43.63711],[105.48688,43.63623],[105.49058,43.6317],[105.49131,43.63079],[105.49781,43.62753],[105.49809,43.62574],[105.50069,43.62405],[105.51085,43.6196],[105.50991,43.61843],[105.50592,43.61996],[105.50094,43.6149],[105.50138,43.61449],[105.49969,43.61295],[105.48629,43.61305],[105.4861,43.61219],[105.48256,43.61224],[105.47809,43.61348],[105.47811,43.60774],[105.46439,43.60577],[105.46492,43.61832],[105.4623,43.61866],[105.45182,43.62429],[105.44904,43.62453],[105.44536,43.62606],[105.44633,43.63813],[105.44637,43.64202],[105.44246,43.6433],[105.4424,43.64695],[105.44515,43.64701],[105.44551,43.64848],[105.4465,43.6499],[105.46278,43.64983],[105.46296,43.65567],[105.46409,43.65574],[105.46427,43.65133],[105.46497,43.65072],[105.4652,43.64983],[105.46702,43.64968],[105.46875,43.64889],[105.46951,43.64828]]]}},{"type":"Feature","properties":{},"geometry":{"type":"Polygon","coordinates":[[[114.52484,48.11322],[114.52695,48.11898],[114.52436,48.12534],[114.52281,48.13057],[114.52792,48.13345],[114.53066,48.13339],[114.53603,48.13144],[114.5409,48.13172],[114.54295,48.13167],[114.54393,48.13012],[114.54504,48.12766],[114.54894,48.12198],[114.54895,48.12071],[114.54293,48.11787],[114.53982,48.11469],[114.53389,48.11008],[114.52949,48.11028],[114.52531,48.11203],[114.52484,48.11322]]]}},{"type":"Feature","properties":{},"geometry":{"type":"Polygon","coordinates":[[[105.48259,43.68639],[105.48227,43.69452],[105.49243,43.69476],[105.50221,43.6949],[105.5199,43.69488],[105.53848,43.69476],[105.54428,43.68688],[105.54471,43.67625],[105.53925,43.67603],[105.53741,43.6751],[105.53666,43.67391],[105.53217,43.67374],[105.53203,43.67126],[105.53194,43.66934],[105.53198,43.66838],[105.53178,43.66744],[105.53351,43.66662],[105.53504,43.66562],[105.53528,43.66445],[105.53684,43.66376],[105.53858,43.66487],[105.53972,43.66615],[105.54019,43.66853],[105.54073,43.66848],[105.5415,43.66781],[105.54212,43.66694],[105.54279,43.66606],[105.54235,43.66498],[105.54406,43.66354],[105.54218,43.6609],[105.53987,43.65966],[105.53874,43.65952],[105.53907,43.66083],[105.53876,43.66154],[105.53836,43.66204],[105.53505,43.66215],[105.53354,43.66172],[105.53201,43.66069],[105.52968,43.66027],[105.52774,43.65921],[105.52828,43.6571],[105.52658,43.65621],[105.52261,43.65656],[105.5183,43.65662],[105.51727,43.65839],[105.51394,43.65774],[105.50819,43.65618],[105.50076,43.65611],[105.49847,43.65927],[105.49142,43.66276],[105.48615,43.66585],[105.48526,43.66729],[105.4853,43.68239],[105.48369,43.68262],[105.48288,43.68322],[105.48259,43.68639]]]}},{"type":"Feature","properties":{},"geometry":{"type":"Polygon","coordinates":[[[106.91684,43.0025],[106.91332,42.99613],[106.90634,42.98774],[106.90428,42.98584],[106.90222,42.98495],[106.90058,42.98476],[106.89703,42.98493],[106.8741,42.97757],[106.87263,42.97864],[106.85044,42.99198],[106.8481,42.99428],[106.84496,42.98806],[106.84001,42.98426],[106.83627,42.98537],[106.83318,42.98769],[106.82815,42.99291],[106.8242,42.99792],[106.82226,43.00584],[106.82339,43.01149],[106.82131,43.01496],[106.82151,43.01946],[106.82251,43.02703],[106.82408,43.03536],[106.81014,43.05047],[106.82109,43.05036],[106.8211,43.05039],[106.82214,43.05039],[106.82212,43.05019],[106.82204,43.05014],[106.82159,43.05016],[106.82157,43.04956],[106.82198,43.04957],[106.82228,43.04952],[106.8233,43.04951],[106.82331,43.05045],[106.82652,43.05049],[106.85718,43.0504],[106.86959,43.05038],[106.86974,43.05455],[106.8782,43.05547],[106.88231,43.05018],[106.88199,43.0395],[106.89018,43.03888],[106.88991,43.0374],[106.88844,43.03426],[106.88878,43.03398],[106.89109,43.03581],[106.9135,43.03591],[106.91704,43.03514],[106.9233,43.02451],[106.91745,43.0127],[106.91736,43.0027],[106.91684,43.0025]]]}},{"type":"Feature","properties":{},"geometry":{"type":"Polygon","coordinates":[[[92.82205,48.32875],[92.82159,48.32932],[92.82274,48.32986],[92.82246,48.33008],[92.82295,48.33033],[92.82321,48.33022],[92.82351,48.33036],[92.82338,48.33045],[92.82359,48.33056],[92.82381,48.3304],[92.82491,48.33087],[92.82629,48.33006],[92.82463,48.32859],[92.82429,48.32754],[92.82422,48.32704],[92.82405,48.32693],[92.8238,48.3269],[92.82328,48.32777],[92.8225,48.32848],[92.82205,48.32875]]]}},{"type":"Feature","properties":{},"geometry":{"type":"Polygon","coordinates":[[[101.4278,47.45511],[101.42814,47.45538],[101.42935,47.45531],[101.42947,47.45511],[101.42905,47.45428],[101.42875,47.45411],[101.42828,47.45416],[101.42809,47.45442],[101.42817,47.45497],[101.4278,47.45511]]]}},{"type":"Feature","properties":{},"geometry":{"type":"Polygon","coordinates":[[[101.16657,43.01571],[101.16895,43.01452],[101.17123,43.022],[101.1733,43.02513],[101.19111,43.02392],[101.19724,43.01996],[101.19951,43.01905],[101.21329,43.01882],[101.21415,43.01908],[101.23904,43.01658],[101.24041,43.01701],[101.25103,43.01587],[101.25376,43.01615],[101.25601,43.01477],[101.27017,43.01079],[101.28166,43.00583],[101.28184,43.00341],[101.27974,43.00146],[101.2835,42.99771],[101.2845,42.99093],[101.28235,42.9814],[101.28045,42.97905],[101.27723,42.97743],[101.27212,42.97655],[101.26696,42.97741],[101.26339,42.97905],[101.26088,42.9818],[101.25871,42.98365],[101.25682,42.98567],[101.2527,42.9996],[101.22805,43.0016],[101.21303,43.00196],[101.21457,42.9941],[101.20814,42.99396],[101.19592,42.99368],[101.19573,42.99553],[101.18947,42.99572],[101.18887,42.99203],[101.18713,42.99226],[101.18535,42.9869],[101.1887,42.98687],[101.18893,42.98497],[101.17664,42.98333],[101.17238,42.98354],[101.16447,42.98338],[101.16189,42.98109],[101.15777,42.98029],[101.15801,42.97849],[101.15147,42.97473],[101.14531,42.97619],[101.14546,42.97983],[101.14254,42.98057],[101.14027,42.98034],[101.13823,42.98056],[101.1358,42.98459],[101.13357,42.98811],[101.13509,42.99134],[101.1423,42.99349],[101.14168,42.99747],[101.14366,43.00094],[101.13838,43.00132],[101.13936,43.0033],[101.14449,43.00325],[101.14348,43.00829],[101.14282,43.01342],[101.13645,43.01406],[101.13578,43.02042],[101.1466,43.01957],[101.14732,43.02208],[101.15076,43.02202],[101.16273,43.02079],[101.16299,43.01778],[101.15968,43.01734],[101.14657,43.01723],[101.14567,43.0166],[101.14451,43.01408],[101.14516,43.00826],[101.15014,43.00782],[101.15348,43.00565],[101.15473,43.00267],[101.15722,43.00273],[101.16479,43.01036],[101.15732,43.01183],[101.15771,43.01274],[101.1655,43.01358],[101.16657,43.01571]]]}},{"type":"Feature","properties":{},"geometry":{"type":"Polygon","coordinates":[[[101.57198,45.69989],[101.57432,45.69925],[101.57643,45.69919],[101.57779,45.69932],[101.58048,45.69962],[101.58326,45.69933],[101.58542,45.69859],[101.58866,45.69775],[101.59035,45.69601],[101.59202,45.69454],[101.59374,45.6925],[101.59383,45.69138],[101.59336,45.69066],[101.5926,45.69022],[101.59178,45.69061],[101.5901,45.69081],[101.58812,45.69073],[101.58644,45.69079],[101.58529,45.69041],[101.58423,45.69087],[101.5827,45.69161],[101.57541,45.69321],[101.56695,45.69447],[101.55923,45.69486],[101.55391,45.69559],[101.54674,45.69628],[101.5414,45.69568],[101.53776,45.69552],[101.53472,45.69657],[101.52998,45.69713],[101.529,45.69794],[101.5306,45.70054],[101.53179,45.70165],[101.53555,45.70348],[101.53863,45.70348],[101.54116,45.70343],[101.54589,45.70355],[101.55005,45.70321],[101.55234,45.70341],[101.55556,45.70276],[101.55845,45.70177],[101.56065,45.7007],[101.56205,45.70036],[101.56454,45.70017],[101.56731,45.70005],[101.56952,45.69982],[101.57198,45.69989]]]}},{"type":"Feature","properties":{},"geometry":{"type":"Polygon","coordinates":[[[90.89031,49.8518],[90.88868,49.85149],[90.88738,49.85142],[90.88628,49.8512],[90.88617,49.85034],[90.88687,49.8501],[90.88709,49.8503],[90.8874,49.85006],[90.88838,49.85029],[90.88875,49.85004],[90.89137,49.8498],[90.89403,49.84886],[90.89734,49.84855],[90.89921,49.84856],[90.9,49.84872],[90.90053,49.84857],[90.90075,49.84839],[90.90089,49.84802],[90.9013,49.84775],[90.90226,49.84768],[90.90279,49.84742],[90.90555,49.84701],[90.90638,49.84728],[90.90679,49.84794],[90.90505,49.84914],[90.9044,49.84998],[90.89868,49.85129],[90.89678,49.85107],[90.89545,49.85208],[90.89225,49.85232],[90.89031,49.8518]]]}},{"type":"Feature","properties":{},"geometry":{"type":"Polygon","coordinates":[[[110.48977,44.61844],[110.49016,44.62016],[110.4926,44.62167],[110.4956,44.62252],[110.49836,44.62268],[110.49961,44.6224],[110.50009,44.62104],[110.49983,44.61926],[110.50191,44.61849],[110.50372,44.61746],[110.5053,44.61591],[110.50722,44.61331],[110.50446,44.61321],[110.50238,44.61309],[110.50109,44.6151],[110.49647,44.61509],[110.49101,44.61368],[110.48844,44.61473],[110.4886,44.61622],[110.4897,44.61762],[110.48977,44.61844]]]}},{"type":"Feature","properties":{},"geometry":{"type":"Polygon","coordinates":[[[106.51336,48.01626],[106.51305,48.01589],[106.51275,48.01563],[106.51265,48.01536],[106.51297,48.0151],[106.51343,48.01493],[106.51381,48.01513],[106.51381,48.01545],[106.51336,48.01562],[106.51336,48.01626]]]}},{"type":"Feature","properties":{},"geometry":{"type":"Polygon","coordinates":[[[102.57366,48.80664],[102.57595,48.80687],[102.57593,48.80795],[102.57765,48.8083],[102.57862,48.81024],[102.57818,48.81138],[102.57486,48.81316],[102.57129,48.81341],[102.57075,48.81173],[102.57366,48.80664]]]}},{"type":"Feature","properties":{},"geometry":{"type":"Polygon","coordinates":[[[106.64982,47.72912],[106.64778,47.72945],[106.64709,47.73],[106.6465,47.72957],[106.64661,47.72926],[106.64721,47.72915],[106.64689,47.72834],[106.6452,47.72779],[106.6438,47.72783],[106.64224,47.72699],[106.64234,47.72573],[106.64368,47.72512],[106.6448,47.72512],[106.64713,47.72605],[106.64822,47.72604],[106.64951,47.7271],[106.64966,47.72808],[106.64982,47.72912]]]}},{"type":"Feature","properties":{},"geometry":{"type":"Polygon","coordinates":[[[106.60177,47.72444],[106.60065,47.72443],[106.59984,47.72505],[106.59899,47.72497],[106.59833,47.72564],[106.59839,47.72846],[106.6001,47.72981],[106.6018,47.73024],[106.60303,47.72989],[106.6048,47.73027],[106.60606,47.72988],[106.60618,47.73035],[106.60723,47.73036],[106.60864,47.73036],[106.6098,47.72973],[106.61017,47.72952],[106.6102,47.72875],[106.61012,47.72866],[106.60923,47.72769],[106.61017,47.72648],[106.60996,47.72616],[106.60807,47.72569],[106.605,47.72435],[106.6034,47.7252],[106.60177,47.72444]]]}},{"type":"Feature","properties":{},"geometry":{"type":"Polygon","coordinates":[[[106.62113,47.71312],[106.62082,47.71311],[106.62043,47.71303],[106.61907,47.71297],[106.61892,47.71375],[106.61906,47.7141],[106.6183,47.71445],[106.61828,47.71531],[106.61833,47.71678],[106.61957,47.71703],[106.61937,47.71784],[106.61995,47.71807],[106.62082,47.71751],[106.62127,47.7176],[106.62201,47.71731],[106.62208,47.71702],[106.62234,47.71527],[106.62247,47.71497],[106.62242,47.71461],[106.62261,47.71429],[106.62224,47.7141],[106.62099,47.71409],[106.62143,47.71343],[106.62113,47.71312]]]}},{"type":"Feature","properties":{},"geometry":{"type":"Polygon","coordinates":[[[106.60312,47.74063],[106.60275,47.74053],[106.60265,47.7405],[106.60141,47.74013],[106.60155,47.73888],[106.60149,47.73816],[106.6015,47.73756],[106.60133,47.73724],[106.60055,47.73669],[106.59981,47.73641],[106.59887,47.73613],[106.59776,47.73659],[106.59627,47.73596],[106.59688,47.73465],[106.59837,47.73408],[106.59876,47.73412],[106.60083,47.7338],[106.60193,47.73437],[106.60256,47.73589],[106.60397,47.73448],[106.60618,47.73399],[106.60723,47.73433],[106.60977,47.73426],[106.61094,47.73423],[106.60971,47.73479],[106.60803,47.73556],[106.6075,47.7356],[106.60638,47.73568],[106.60569,47.73585],[106.60545,47.73614],[106.60523,47.73639],[106.60468,47.73616],[106.60448,47.73635],[106.60436,47.73731],[106.60421,47.73881],[106.60441,47.73927],[106.60453,47.73952],[106.60477,47.73968],[106.60452,47.73984],[106.60403,47.73989],[106.60385,47.74016],[106.60312,47.74063]]]}},{"type":"Feature","properties":{},"geometry":{"type":"Polygon","coordinates":[[[106.58798,47.74794],[106.58638,47.74711],[106.5832,47.74546],[106.58516,47.74363],[106.58658,47.74239],[106.58356,47.74122],[106.58365,47.74066],[106.58413,47.74027],[106.58416,47.74025],[106.58483,47.7397],[106.58629,47.73991],[106.58747,47.7403],[106.58857,47.74072],[106.58975,47.74065],[106.59161,47.74093],[106.59265,47.74045],[106.59251,47.73987],[106.59306,47.73937],[106.59403,47.73903],[106.59477,47.73914],[106.59511,47.73999],[106.59382,47.74057],[106.59441,47.74124],[106.59208,47.74138],[106.59188,47.74211],[106.59164,47.7429],[106.59092,47.74367],[106.59165,47.74393],[106.59157,47.74443],[106.59192,47.74467],[106.59185,47.74512],[106.59315,47.74486],[106.59389,47.74532],[106.59384,47.7465],[106.59491,47.74652],[106.59497,47.74686],[106.59595,47.74725],[106.5971,47.74692],[106.59736,47.74958],[106.59633,47.74982],[106.59417,47.74868],[106.59437,47.74693],[106.59213,47.74717],[106.59035,47.74663],[106.58964,47.74665],[106.58798,47.74794]]]}},{"type":"Feature","properties":{},"geometry":{"type":"Polygon","coordinates":[[[101.70926,46.96342],[101.70786,46.9683],[101.70403,46.96712],[101.70393,46.95901],[101.70183,46.94945],[101.70239,46.9438],[101.7064,46.9432],[101.70821,46.94382],[101.70909,46.94947],[101.71182,46.95372],[101.71145,46.9551],[101.7146,46.95615],[101.7178,46.95863],[101.71653,46.95896],[101.71469,46.9575],[101.71109,46.95624],[101.70803,46.95631],[101.7079,46.96151],[101.70926,46.96342]]]}},{"type":"Feature","properties":{},"geometry":{"type":"Polygon","coordinates":[[[107.25733,47.76011],[107.26296,47.76063],[107.26327,47.76063],[107.26577,47.7606],[107.27242,47.75859],[107.28022,47.75942],[107.28546,47.75998],[107.28537,47.76045],[107.29346,47.76492],[107.29612,47.76583],[107.30338,47.76636],[107.30588,47.76637],[107.31357,47.75724],[107.31426,47.75642],[107.31458,47.75603],[107.31766,47.75243],[107.31613,47.74683],[107.31445,47.74663],[107.31196,47.74634],[107.30306,47.74178],[107.29858,47.73948],[107.29332,47.73819],[107.29218,47.7379],[107.29133,47.7377],[107.29074,47.73755],[107.28527,47.73778],[107.28462,47.73817],[107.27896,47.74146],[107.26892,47.74335],[107.26653,47.7438],[107.26172,47.7447],[107.2613,47.74904],[107.26358,47.75095],[107.26485,47.75202],[107.26531,47.75241],[107.26483,47.75295],[107.26476,47.75303],[107.26386,47.75403],[107.2623,47.7547],[107.25652,47.75717],[107.2553,47.75928],[107.25547,47.75958],[107.25668,47.7602],[107.25733,47.76011]]]}},{"type":"Feature","properties":{},"geometry":{"type":"Polygon","coordinates":[[[107.30709,47.80797],[107.3083,47.80831],[107.30836,47.80873],[107.30657,47.81028],[107.30515,47.81099],[107.30377,47.81094],[107.30333,47.81036],[107.30331,47.80976],[107.30201,47.80925],[107.30279,47.80856],[107.30504,47.80856],[107.30709,47.80797]]]}},{"type":"Feature","properties":{},"geometry":{"type":"Polygon","coordinates":[[[102.99724,47.15738],[102.99775,47.15759],[102.99881,47.15758],[102.99915,47.15719],[102.99954,47.15612],[102.99898,47.15589],[102.99765,47.15593],[102.997,47.15675],[102.99724,47.15738]]]}},{"type":"Feature","properties":{},"geometry":{"type":"Polygon","coordinates":[[[114.63281,48.06867],[114.63672,48.07086],[114.63874,48.07178],[114.63955,48.07215],[114.64106,48.07214],[114.64251,48.07174],[114.64357,48.071],[114.64385,48.07006],[114.64324,48.06959],[114.64246,48.06932],[114.64201,48.06927],[114.64123,48.06881],[114.64048,48.06871],[114.63979,48.0683],[114.63979,48.06759],[114.63953,48.06704],[114.63877,48.0665],[114.63781,48.0665],[114.63649,48.06666],[114.63558,48.0666],[114.63493,48.0666],[114.6341,48.06694],[114.63335,48.06742],[114.63282,48.06832],[114.63281,48.06867]]]}},{"type":"Feature","properties":{},"geometry":{"type":"Polygon","coordinates":[[[98.80282,47.24228],[98.80425,47.24253],[98.80646,47.24664],[98.80881,47.24989],[98.80909,47.25056],[98.81049,47.25153],[98.81326,47.25331],[98.81373,47.25413],[98.81316,47.25446],[98.81171,47.25466],[98.80877,47.25866],[98.80698,47.26023],[98.80683,47.26178],[98.80383,47.26201],[98.80276,47.25882],[98.8027,47.25387],[98.80219,47.25082],[98.79929,47.24816],[98.79961,47.2466],[98.80082,47.2455],[98.80133,47.24314],[98.80211,47.2425],[98.80282,47.24228]]]}},{"type":"Feature","properties":{},"geometry":{"type":"Polygon","coordinates":[[[102.27472,46.49284],[102.27598,46.49246],[102.27665,46.49234],[102.27719,46.49181],[102.27905,46.49212],[102.28068,46.49409],[102.28101,46.4941],[102.28193,46.49443],[102.28247,46.49424],[102.28289,46.4945],[102.28274,46.49482],[102.28367,46.49546],[102.28499,46.49567],[102.28567,46.49618],[102.28736,46.49692],[102.28861,46.49739],[102.28942,46.49706],[102.2907,46.49717],[102.29206,46.4972],[102.29318,46.49841],[102.29208,46.49951],[102.293,46.50047],[102.29501,46.50076],[102.29726,46.50219],[102.29686,46.50304],[102.2963,46.50337],[102.29731,46.50513],[102.29798,46.50635],[102.29792,46.50893],[102.29816,46.51187],[102.29915,46.51242],[102.29843,46.51281],[102.29831,46.51329],[102.29883,46.51446],[102.29819,46.5146],[102.29745,46.51739],[102.29816,46.52076],[102.29791,46.52203],[102.29763,46.52257],[102.2977,46.52304],[102.29785,46.52353],[102.2978,46.52407],[102.29804,46.52471],[102.29835,46.5253],[102.29829,46.52636],[102.29908,46.5269],[102.29937,46.52711],[102.30043,46.52697],[102.30056,46.52787],[102.30228,46.53148],[102.30537,46.53754],[102.3054,46.53844],[102.30689,46.54264],[102.30797,46.54358],[102.30823,46.54534],[102.30984,46.54589],[102.31005,46.54739],[102.30836,46.54837],[102.30761,46.54794],[102.30606,46.54818],[102.30456,46.54897],[102.3034,46.55159],[102.3028,46.55281],[102.30348,46.55543],[102.30281,46.55832],[102.30353,46.55983],[102.30234,46.56048],[102.30233,46.56263],[102.30284,46.56513],[102.30174,46.56574],[102.30302,46.56614],[102.30581,46.56647],[102.30614,46.567],[102.3033,46.56822],[102.30335,46.56877],[102.30437,46.56936],[102.30464,46.56999],[102.30386,46.57226],[102.30448,46.57454],[102.30309,46.578],[102.29755,46.57882],[102.2962,46.57845],[102.29673,46.57692],[102.29588,46.5736],[102.29623,46.57244],[102.29697,46.57144],[102.29688,46.57013],[102.29342,46.57021],[102.27729,46.5732],[102.27484,46.57426],[102.27576,46.57304],[102.27718,46.57229],[102.2795,46.57161],[102.29027,46.5671],[102.2966,46.56581],[102.29715,46.56373],[102.29683,46.56237],[102.29673,46.55795],[102.29737,46.55705],[102.2975,46.55319],[102.29799,46.55253],[102.29858,46.55],[102.29997,46.54833],[102.29971,46.54826],[102.29815,46.54866],[102.29737,46.54744],[102.2952,46.54776],[102.29483,46.54728],[102.29778,46.54623],[102.29924,46.54573],[102.30162,46.54325],[102.29945,46.54009],[102.2972,46.5383],[102.29761,46.53495],[102.29537,46.53078],[102.29389,46.52553],[102.29372,46.52049],[102.29458,46.51483],[102.29522,46.51151],[102.2958,46.51006],[102.29471,46.5055],[102.29083,46.50067],[102.28769,46.4994],[102.28299,46.49693],[102.27862,46.49538],[102.27765,46.4952],[102.27524,46.49401],[102.27472,46.49284]]]}},{"type":"Feature","properties":{},"geometry":{"type":"Polygon","coordinates":[[[102.27516,46.59902],[102.28216,46.59336],[102.28175,46.5927],[102.27265,46.59163],[102.27602,46.59069],[102.28196,46.5909],[102.28304,46.58917],[102.28405,46.58905],[102.28568,46.58856],[102.28646,46.58889],[102.28762,46.58855],[102.28742,46.58809],[102.28785,46.58745],[102.28955,46.58598],[102.29224,46.58519],[102.29472,46.58525],[102.29727,46.58744],[102.29475,46.59013],[102.28894,46.59318],[102.28535,46.59399],[102.27913,46.59855],[102.27759,46.59834],[102.27604,46.59946],[102.27516,46.59902]]]}},{"type":"Feature","properties":{},"geometry":{"type":"Polygon","coordinates":[[[101.6867,46.96057],[101.6869,46.96019],[101.68818,46.96002],[101.6905,46.96023],[101.69128,46.96035],[101.69178,46.95971],[101.69286,46.95955],[101.69353,46.95998],[101.69426,46.95993],[101.69552,46.95953],[101.6958,46.96009],[101.69568,46.9608],[101.69396,46.96103],[101.69369,46.96154],[101.69311,46.96154],[101.69265,46.96135],[101.69203,46.9614],[101.69147,46.96135],[101.68731,46.96077],[101.6867,46.96057]]]}},{"type":"Feature","properties":{},"geometry":{"type":"Polygon","coordinates":[[[101.72966,46.88708],[101.72677,46.88503],[101.72572,46.88498],[101.72134,46.88674],[101.71351,46.8868],[101.71235,46.88831],[101.72627,46.88813],[101.72793,46.88919],[101.72932,46.88878],[101.72966,46.88708]]]}},{"type":"Feature","properties":{},"geometry":{"type":"Polygon","coordinates":[[[101.72944,46.93225],[101.72675,46.93573],[101.73344,46.94007],[101.7422,46.943],[101.75228,46.95413],[101.75546,46.95275],[101.74953,46.94388],[101.78022,46.94244],[101.78833,46.9478],[101.79069,46.95302],[101.79404,46.9563],[101.79734,46.95641],[101.79747,46.95451],[101.80829,46.95592],[101.81082,46.95715],[101.81159,46.95627],[101.80726,46.95357],[101.79734,46.95173],[101.79005,46.94651],[101.78949,46.94388],[101.79082,46.94335],[101.78906,46.9415],[101.79095,46.93969],[101.79179,46.93955],[101.79488,46.93904],[101.79614,46.93884],[101.79932,46.93409],[101.79786,46.93306],[101.78524,46.93714],[101.78337,46.93625],[101.78528,46.9342],[101.78302,46.93252],[101.78026,46.93522],[101.77822,46.937],[101.77865,46.93939],[101.75889,46.93889],[101.75391,46.93974],[101.74597,46.93843],[101.74009,46.93676],[101.72944,46.93225]]]}},{"type":"Feature","properties":{},"geometry":{"type":"Polygon","coordinates":[[[101.64328,46.98914],[101.63716,46.9895],[101.62828,46.99287],[101.62703,46.99619],[101.62441,46.99874],[101.62383,47.00032],[101.62456,47.00066],[101.62851,46.99764],[101.6302,46.9952],[101.63541,46.99321],[101.6363,46.99372],[101.63813,46.99332],[101.63981,46.99217],[101.64257,46.99237],[101.64691,46.99131],[101.64676,46.99053],[101.64328,46.98914]]]}},{"type":"Feature","properties":{},"geometry":{"type":"Polygon","coordinates":[[[101.62482,46.95553],[101.62485,46.95671],[101.62606,46.95698],[101.63474,46.95143],[101.64084,46.94938],[101.6528,46.94752],[101.6536,46.94779],[101.65328,46.95026],[101.654,46.95413],[101.65566,46.95558],[101.65712,46.95551],[101.65727,46.95222],[101.65641,46.94979],[101.65682,46.94606],[101.6686,46.93911],[101.6822,46.9276],[101.69985,46.91869],[101.7022,46.9192],[101.70739,46.91703],[101.7081,46.91559],[101.70673,46.91436],[101.70306,46.91542],[101.70179,46.91448],[101.70439,46.91105],[101.70357,46.90954],[101.70076,46.90988],[101.6717,46.93081],[101.66242,46.93896],[101.65198,46.94428],[101.63941,46.94735],[101.63095,46.95075],[101.62482,46.95553]]]}},{"type":"Feature","properties":{},"geometry":{"type":"Polygon","coordinates":[[[100.49093,47.98572],[100.48961,47.98574],[100.48858,47.98614],[100.48923,47.98688],[100.48779,47.98737],[100.48743,47.98825],[100.4886,47.98879],[100.48919,47.98841],[100.49042,47.9884],[100.49173,47.98721],[100.49176,47.98618],[100.49093,47.98572]]]}},{"type":"Feature","properties":{},"geometry":{"type":"Polygon","coordinates":[[[101.49292,47.44338],[101.495,47.44518],[101.49483,47.44558],[101.4941,47.4461],[101.49311,47.44595],[101.492,47.44412],[101.49215,47.44395],[101.49292,47.44338]]]}},{"type":"Feature","properties":{},"geometry":{"type":"Polygon","coordinates":[[[108.95543,46.14988],[108.94512,46.13643],[108.92597,46.12105],[108.92425,46.11051],[108.92991,46.10441],[108.93311,46.10095],[108.94124,46.09493],[108.9557,46.09086],[108.97063,46.08808],[109.01387,46.08857],[109.04808,46.11604],[109.06054,46.12628],[109.06223,46.13036],[109.06062,46.14935],[109.05903,46.15589],[109.05026,46.18319],[109.03014,46.18566],[108.99415,46.15949],[108.97835,46.15736],[108.95543,46.14988]]]}},{"type":"Feature","properties":{},"geometry":{"type":"Polygon","coordinates":[[[108.95603,46.11989],[108.95592,46.11727],[108.96063,46.11716],[108.96047,46.11815],[108.96202,46.11809],[108.96211,46.11774],[108.96504,46.11675],[108.96862,46.11663],[108.96997,46.11762],[108.96864,46.11942],[108.96606,46.11948],[108.96449,46.11938],[108.96181,46.11965],[108.96049,46.11977],[108.95603,46.11989]]]}},{"type":"Feature","properties":{},"geometry":{"type":"Polygon","coordinates":[[[106.04897,49.45507],[106.03832,49.45239],[106.03077,49.44525],[106.0251,49.43945],[106.02116,49.43565],[106.03682,49.43414],[106.04523,49.43336],[106.04854,49.43414],[106.05133,49.43746],[106.05609,49.44243],[106.05871,49.44614],[106.05506,49.45055],[106.05154,49.45552],[106.04897,49.45507]]]}},{"type":"Feature","properties":{},"geometry":{"type":"Polygon","coordinates":[[[104.40994,48.32481],[104.40084,48.32236],[104.38745,48.31859],[104.3902,48.31306],[104.39192,48.30849],[104.38797,48.30135],[104.38437,48.29359],[104.38359,48.28982],[104.38291,48.28645],[104.37939,48.28331],[104.3708,48.27891],[104.36668,48.27263],[104.36153,48.26668],[104.35441,48.26297],[104.34505,48.26177],[104.33493,48.25497],[104.32926,48.25583],[104.32729,48.25354],[104.32943,48.24988],[104.33235,48.24423],[104.32523,48.23771],[104.33021,48.23062],[104.3336,48.2283],[104.33664,48.22677],[104.3337,48.22283],[104.32797,48.21598],[104.31707,48.20786],[104.31278,48.20277],[104.30695,48.19848],[104.30446,48.19567],[104.30291,48.19333],[104.29914,48.18801],[104.3018,48.18297],[104.30514,48.17662],[104.30549,48.1737],[104.31158,48.16236],[104.31991,48.16179],[104.32926,48.16437],[104.32875,48.17336],[104.32806,48.1828],[104.32995,48.18721],[104.33896,48.18806],[104.33767,48.19327],[104.34085,48.19968],[104.34437,48.20391],[104.35123,48.20488],[104.35141,48.20877],[104.34334,48.21844],[104.35184,48.22582],[104.34814,48.23102],[104.35381,48.23685],[104.35698,48.24262],[104.36239,48.2428],[104.36728,48.24691],[104.36394,48.24954],[104.37037,48.25674],[104.37621,48.26063],[104.38231,48.26286],[104.38771,48.2588],[104.39063,48.25926],[104.3914,48.26131],[104.38848,48.26348],[104.38848,48.26446],[104.39466,48.26628],[104.40093,48.26914],[104.40548,48.27383],[104.40943,48.27954],[104.40788,48.28319],[104.40664,48.2883],[104.40913,48.29416],[104.41136,48.29787],[104.41265,48.30044],[104.41029,48.30272],[104.41192,48.30923],[104.4114,48.31562],[104.41501,48.32219],[104.4138,48.32476],[104.40994,48.32481]]]}},{"type":"Feature","properties":{},"geometry":{"type":"Polygon","coordinates":[[[104.44659,48.3138],[104.43157,48.3142],[104.42994,48.31408],[104.42724,48.31371],[104.42329,48.31249],[104.4205,48.31166],[104.41724,48.311],[104.41655,48.30989],[104.41574,48.30769],[104.41488,48.30486],[104.41441,48.30255],[104.42217,48.30187],[104.42464,48.30108],[104.42465,48.30033],[104.42432,48.29787],[104.42372,48.29233],[104.43676,48.29236],[104.44779,48.28936],[104.46547,48.27691],[104.47912,48.26491],[104.48359,48.25663],[104.49011,48.25126],[104.49663,48.25217],[104.49612,48.26286],[104.48427,48.27857],[104.48256,48.28428],[104.50822,48.27645],[104.51654,48.28091],[104.51757,48.2885],[104.53465,48.28948],[104.54418,48.29239],[104.54281,48.30232],[104.5271,48.31089],[104.50624,48.32989],[104.51122,48.33566],[104.52968,48.33035],[104.54839,48.32236],[104.555,48.31637],[104.55148,48.3078],[104.56324,48.30381],[104.57577,48.30495],[104.59079,48.2961],[104.59662,48.29416],[104.60486,48.29947],[104.58778,48.31009],[104.57302,48.31357],[104.56324,48.32459],[104.55122,48.33229],[104.53809,48.33577],[104.52478,48.34404],[104.51689,48.34707],[104.51612,48.35585],[104.51594,48.36406],[104.52212,48.37159],[104.52435,48.37279],[104.53311,48.37319],[104.53963,48.36617],[104.55834,48.35716],[104.56131,48.36164],[104.5495,48.36731],[104.54505,48.37057],[104.54731,48.37145],[104.54607,48.37244],[104.5438,48.37239],[104.54268,48.3735],[104.54388,48.37498],[104.54289,48.37612],[104.53959,48.37552],[104.53659,48.37584],[104.53277,48.37729],[104.53041,48.37929],[104.52792,48.38057],[104.52491,48.38114],[104.5253,48.3845],[104.52702,48.38564],[104.53023,48.38567],[104.53229,48.3861],[104.53564,48.38749],[104.54118,48.39348],[104.54049,48.3998],[104.54092,48.40909],[104.55062,48.40402],[104.55955,48.39821],[104.55937,48.39462],[104.56255,48.39348],[104.5713,48.39593],[104.57826,48.3953],[104.58469,48.39724],[104.58349,48.40704],[104.56676,48.4108],[104.55131,48.41422],[104.55688,48.41866],[104.55508,48.42294],[104.55886,48.43],[104.56555,48.43763],[104.56907,48.43991],[104.5665,48.44452],[104.58032,48.4444],[104.58813,48.44338],[104.59697,48.44406],[104.59602,48.44082],[104.60066,48.43803],[104.6034,48.44201],[104.59877,48.44594],[104.58186,48.44947],[104.56744,48.45238],[104.57911,48.45397],[104.58525,48.45468],[104.58285,48.45901],[104.57225,48.45986],[104.57085,48.46295],[104.5663,48.46312],[104.56261,48.46239],[104.56203,48.46483],[104.56452,48.46867],[104.56645,48.47005],[104.56663,48.47227],[104.56409,48.47972],[104.57298,48.47679],[104.57688,48.47488],[104.57972,48.4769],[104.57465,48.48046],[104.56924,48.48262],[104.56302,48.48276],[104.56049,48.48268],[104.55268,48.48823],[104.54641,48.49062],[104.54045,48.49053],[104.5344,48.49096],[104.52925,48.49044],[104.52363,48.48643],[104.52637,48.48322],[104.52998,48.48157],[104.52933,48.4773],[104.53122,48.47377],[104.53152,48.47153],[104.54088,48.47321],[104.54186,48.46601],[104.53985,48.46108],[104.53701,48.45679],[104.53873,48.45377],[104.53907,48.4487],[104.53985,48.4452],[104.53787,48.44318],[104.53195,48.43937],[104.52916,48.43421],[104.52483,48.4284],[104.52182,48.4247],[104.52169,48.4214],[104.51959,48.41718],[104.51727,48.41308],[104.51388,48.40969],[104.5129,48.40867],[104.50775,48.40741],[104.50307,48.40584],[104.50247,48.40405],[104.5047,48.40186],[104.5053,48.39935],[104.50346,48.3973],[104.50019,48.39724],[104.49861,48.39527],[104.49972,48.3918],[104.49805,48.39054],[104.49607,48.38798],[104.4974,48.38399],[104.49955,48.38168],[104.49976,48.37837],[104.50067,48.37572],[104.49899,48.37239],[104.49037,48.36768],[104.47706,48.37301],[104.4623,48.36435],[104.4714,48.34587],[104.48187,48.33959],[104.48908,48.33412],[104.46693,48.32487],[104.44659,48.3138]]]}},{"type":"Feature","properties":{},"geometry":{"type":"Polygon","coordinates":[[[109.27577,46.33371],[109.27543,46.33745],[109.27585,46.34029],[109.27619,46.34066],[109.28878,46.34114],[109.28916,46.34031],[109.29641,46.34077],[109.29822,46.3399],[109.30238,46.33982],[109.30675,46.33365],[109.30658,46.32974],[109.30409,46.32619],[109.27997,46.32614],[109.27991,46.33369],[109.27577,46.33371]]]}},{"type":"Feature","properties":{},"geometry":{"type":"Polygon","coordinates":[[[109.33989,46.3116],[109.32598,46.30437],[109.31886,46.29453],[109.31766,46.28622],[109.32066,46.28415],[109.32838,46.28818],[109.33585,46.29251],[109.33877,46.29933],[109.34501,46.30069],[109.34624,46.30182],[109.34083,46.31184],[109.33989,46.3116]]]}},{"type":"Feature","properties":{},"geometry":{"type":"Polygon","coordinates":[[[114.81947,46.96901],[114.84502,46.96904],[114.84504,46.9507],[114.81945,46.95066],[114.81947,46.96901]]]}},{"type":"Feature","properties":{},"geometry":{"type":"Polygon","coordinates":[[[113.01275,46.9124],[113.01314,46.91618],[113.01657,46.91738],[113.01812,46.9197],[113.01889,46.92248],[113.02477,46.9238],[113.03052,46.92333],[113.0361,46.92237],[113.04082,46.92055],[113.04224,46.91732],[113.04653,46.91472],[113.04657,46.91225],[113.04301,46.91046],[113.03726,46.90944],[113.02996,46.91064],[113.02752,46.91351],[113.02176,46.91325],[113.01704,46.91296],[113.01275,46.9124]]]}},{"type":"Feature","properties":{},"geometry":{"type":"Polygon","coordinates":[[[111.27329,47.25442],[111.27172,47.25475],[111.27024,47.25346],[111.26908,47.25196],[111.26913,47.25118],[111.26958,47.25024],[111.27055,47.24968],[111.27158,47.24941],[111.27252,47.2493],[111.27318,47.25003],[111.27389,47.25043],[111.27454,47.25121],[111.27531,47.25261],[111.27539,47.2535],[111.27521,47.25386],[111.27494,47.25464],[111.27469,47.25488],[111.27421,47.25493],[111.27329,47.25442]]]}},{"type":"Feature","properties":{},"geometry":{"type":"Polygon","coordinates":[[[97.82902,49.35241],[97.82802,49.35239],[97.82738,49.35247],[97.8269,49.3526],[97.82643,49.35281],[97.82598,49.35312],[97.82578,49.35341],[97.82578,49.35381],[97.82592,49.3542],[97.82621,49.35464],[97.8264,49.35538],[97.82642,49.35571],[97.82559,49.35606],[97.82516,49.3564],[97.82489,49.35677],[97.82469,49.3573],[97.82468,49.35784],[97.8251,49.35826],[97.82522,49.35846],[97.82507,49.35865],[97.82536,49.35896],[97.8261,49.3597],[97.82689,49.36022],[97.82767,49.36083],[97.82816,49.36125],[97.82807,49.36172],[97.82807,49.36211],[97.82843,49.36232],[97.82851,49.36287],[97.82908,49.3635],[97.82998,49.36394],[97.83078,49.36406],[97.83059,49.36439],[97.8303,49.36489],[97.82998,49.36549],[97.82979,49.36617],[97.82998,49.36678],[97.83089,49.3671],[97.83166,49.36712],[97.83259,49.36689],[97.83335,49.36663],[97.83422,49.36631],[97.83567,49.36606],[97.83681,49.36568],[97.8368,49.36517],[97.83686,49.36466],[97.83665,49.36399],[97.83597,49.36337],[97.83511,49.36268],[97.83422,49.36216],[97.83302,49.36151],[97.83265,49.3612],[97.83206,49.36075],[97.83221,49.36027],[97.83275,49.35967],[97.83331,49.35883],[97.83354,49.35819],[97.83347,49.35697],[97.8334,49.35616],[97.8329,49.35532],[97.83214,49.35481],[97.83143,49.35453],[97.83057,49.35438],[97.83041,49.3542],[97.83093,49.35349],[97.831,49.35306],[97.83077,49.3529],[97.83003,49.35255],[97.82902,49.35241]]]}},{"type":"Feature","properties":{},"geometry":{"type":"Polygon","coordinates":[[[101.48467,47.45957],[101.48512,47.45985],[101.48574,47.45955],[101.48645,47.45932],[101.48668,47.4595],[101.48699,47.45961],[101.48737,47.45957],[101.48768,47.45933],[101.48757,47.45895],[101.48743,47.45871],[101.48702,47.45837],[101.4859,47.45835],[101.48546,47.4586],[101.48496,47.45889],[101.48468,47.45901],[101.48439,47.45933],[101.48467,47.45957]]]}},{"type":"Feature","properties":{},"geometry":{"type":"Polygon","coordinates":[[[101.47853,47.42093],[101.47924,47.42055],[101.47954,47.42008],[101.47945,47.41946],[101.47893,47.41859],[101.47842,47.41815],[101.47741,47.41783],[101.47601,47.41858],[101.47504,47.41876],[101.47423,47.41898],[101.47373,47.4193],[101.47357,47.41938],[101.47347,47.41961],[101.47318,47.42005],[101.47277,47.42037],[101.47259,47.42054],[101.47237,47.42096],[101.47204,47.4211],[101.47209,47.42132],[101.47347,47.42122],[101.47563,47.42047],[101.47686,47.41998],[101.47794,47.42031],[101.47853,47.42093]]]}},{"type":"Feature","properties":{},"geometry":{"type":"Polygon","coordinates":[[[101.59578,47.05931],[101.59706,47.05932],[101.59795,47.05918],[101.59864,47.05889],[101.59884,47.05852],[101.59883,47.05833],[101.59877,47.05798],[101.59863,47.05772],[101.59791,47.05755],[101.59751,47.05747],[101.59695,47.05723],[101.59601,47.05694],[101.59517,47.05678],[101.59476,47.05689],[101.59457,47.05736],[101.59466,47.0576],[101.5954,47.05788],[101.59563,47.05817],[101.59575,47.05854],[101.59565,47.05887],[101.59578,47.05931]]]}},{"type":"Feature","properties":{},"geometry":{"type":"Polygon","coordinates":[[[101.93695,46.8886],[101.936,46.88833],[101.93617,46.88787],[101.93671,46.88731],[101.93733,46.88652],[101.93841,46.88684],[101.93836,46.88715],[101.93807,46.88751],[101.93773,46.88791],[101.93733,46.88829],[101.93709,46.88857],[101.93695,46.8886]]]}},{"type":"Feature","properties":{},"geometry":{"type":"Polygon","coordinates":[[[101.93433,46.89186],[101.93334,46.89155],[101.93195,46.89212],[101.93074,46.89234],[101.93006,46.89272],[101.92969,46.8935],[101.92849,46.89394],[101.92699,46.89428],[101.92489,46.89469],[101.92328,46.89504],[101.92235,46.89535],[101.92173,46.89545],[101.91972,46.89633],[101.91738,46.89752],[101.91624,46.89841],[101.91508,46.89925],[101.91414,46.89957],[101.91392,46.90014],[101.91439,46.90041],[101.91542,46.89994],[101.91657,46.89952],[101.91737,46.89911],[101.91909,46.89838],[101.92035,46.89777],[101.92197,46.89697],[101.9237,46.89626],[101.92481,46.8959],[101.92586,46.89559],[101.92702,46.89522],[101.92768,46.895],[101.92812,46.89501],[101.929,46.89477],[101.93058,46.89417],[101.93182,46.89357],[101.93263,46.89304],[101.93364,46.89226],[101.93433,46.89186]]]}},{"type":"Feature","properties":{},"geometry":{"type":"Polygon","coordinates":[[[101.94143,46.88618],[101.9424,46.88624],[101.94334,46.88579],[101.94341,46.88531],[101.94343,46.88517],[101.94237,46.8847],[101.94173,46.88454],[101.94184,46.88368],[101.94083,46.88356],[101.94109,46.88277],[101.94115,46.88208],[101.94064,46.88155],[101.94145,46.88115],[101.94122,46.88055],[101.94016,46.88016],[101.93922,46.88027],[101.93818,46.88043],[101.93765,46.88051],[101.93696,46.88094],[101.93657,46.88149],[101.93345,46.88152],[101.93089,46.88174],[101.92871,46.88203],[101.92755,46.88205],[101.92625,46.88214],[101.92467,46.88222],[101.9235,46.8823],[101.92294,46.88205],[101.9213,46.88206],[101.91952,46.88247],[101.91783,46.88287],[101.91616,46.88318],[101.91473,46.88354],[101.91296,46.88387],[101.91208,46.88405],[101.91119,46.88411],[101.91064,46.88404],[101.90983,46.88396],[101.90899,46.8839],[101.90826,46.88405],[101.90783,46.88453],[101.90741,46.88478],[101.90649,46.88493],[101.90409,46.8855],[101.90285,46.88588],[101.90153,46.88636],[101.90032,46.88679],[101.89931,46.88714],[101.89799,46.88764],[101.89632,46.88844],[101.89482,46.88896],[101.89382,46.88914],[101.8917,46.88978],[101.89003,46.89],[101.88825,46.89011],[101.88708,46.89032],[101.88661,46.89049],[101.88636,46.89105],[101.88784,46.89128],[101.88971,46.89127],[101.89132,46.89091],[101.89192,46.8908],[101.89199,46.89077],[101.89312,46.89079],[101.89375,46.89074],[101.89461,46.89042],[101.89608,46.89015],[101.89812,46.8894],[101.89958,46.88871],[101.90034,46.88827],[101.90067,46.88811],[101.90135,46.888],[101.90199,46.88787],[101.90334,46.88742],[101.90394,46.8871],[101.90511,46.88679],[101.90579,46.8867],[101.90615,46.88668],[101.90745,46.88614],[101.90827,46.88588],[101.90899,46.88587],[101.90971,46.8858],[101.91067,46.88555],[101.91157,46.88519],[101.91203,46.88508],[101.91317,46.88514],[101.91403,46.88513],[101.91454,46.8851],[101.91499,46.88492],[101.91554,46.88465],[101.91624,46.8846],[101.91679,46.88451],[101.91728,46.88437],[101.91821,46.8843],[101.91953,46.88415],[101.92016,46.88409],[101.92097,46.88388],[101.92116,46.88379],[101.9227,46.88368],[101.92425,46.88367],[101.92562,46.88361],[101.92714,46.88345],[101.92792,46.88338],[101.92842,46.88337],[101.92938,46.88323],[101.93078,46.88315],[101.93267,46.88306],[101.93379,46.88297],[101.93524,46.88301],[101.93629,46.88316],[101.93731,46.88356],[101.93869,46.88445],[101.93939,46.88491],[101.9395,46.88495],[101.93982,46.88507],[101.94062,46.885],[101.94096,46.88539],[101.94143,46.88618]]]}},{"type":"Feature","properties":{},"geometry":{"type":"Polygon","coordinates":[[[114.49832,48.09968],[114.49826,48.10004],[114.49928,48.1005],[114.50157,48.10119],[114.50195,48.10126],[114.50231,48.10128],[114.5026,48.10122],[114.50281,48.10114],[114.50299,48.10102],[114.50306,48.10085],[114.50311,48.1006],[114.50308,48.10046],[114.50299,48.10031],[114.50284,48.10018],[114.50252,48.10003],[114.50159,48.09965],[114.50134,48.09944],[114.50116,48.09925],[114.50106,48.09907],[114.50089,48.09895],[114.50067,48.09883],[114.50084,48.09859],[114.50146,48.09816],[114.50134,48.098],[114.50062,48.09818],[114.50006,48.09824],[114.49956,48.09812],[114.49925,48.09794],[114.49902,48.09769],[114.49861,48.09777],[114.49832,48.09793],[114.49838,48.09826],[114.49822,48.09844],[114.49837,48.09882],[114.49857,48.09926],[114.49832,48.09968]]]}},{"type":"Feature","properties":{},"geometry":{"type":"Polygon","coordinates":[[[106.15415,48.74568],[106.15754,48.7462],[106.16102,48.74787],[106.16314,48.74705],[106.16211,48.74505],[106.15967,48.743],[106.16018,48.74113],[106.1575,48.73665],[106.15402,48.7362],[106.1516,48.73695],[106.15108,48.73873],[106.15338,48.74491],[106.15415,48.74568]]]}},{"type":"Feature","properties":{},"geometry":{"type":"Polygon","coordinates":[[[106.1401,48.73491],[106.14335,48.73695],[106.14371,48.73792],[106.14488,48.73833],[106.14706,48.73818],[106.14787,48.73712],[106.14941,48.73712],[106.15086,48.73669],[106.15161,48.73606],[106.15195,48.73413],[106.14959,48.73274],[106.14723,48.73227],[106.14465,48.7317],[106.14452,48.73291],[106.14265,48.73325],[106.1401,48.73491]]]}},{"type":"Feature","properties":{},"geometry":{"type":"Polygon","coordinates":[[[104.16386,44.37186],[104.16231,44.37054],[104.16177,44.36992],[104.16067,44.36992],[104.15971,44.37032],[104.15856,44.37139],[104.15766,44.37214],[104.15651,44.37276],[104.15503,44.37409],[104.15626,44.37539],[104.15885,44.37562],[104.16617,44.37417],[104.16697,44.37346],[104.16731,44.37263],[104.16559,44.37208],[104.16386,44.37186]]]}},{"type":"Feature","properties":{},"geometry":{"type":"Polygon","coordinates":[[[95.67328,46.9685],[95.67788,46.97157],[95.6788,46.97103],[95.67995,46.97026],[95.6797,46.96936],[95.67783,46.96789],[95.67927,46.96707],[95.68071,46.96759],[95.68134,46.9678],[95.68231,46.96733],[95.68296,46.96701],[95.68344,46.96682],[95.68321,46.9665],[95.68239,46.96544],[95.6821,46.96503],[95.68143,46.96413],[95.68093,46.96376],[95.67976,46.96358],[95.67868,46.96372],[95.67501,46.96561],[95.67503,46.96651],[95.6726,46.96806],[95.67328,46.9685]]]}},{"type":"Feature","properties":{},"geometry":{"type":"Polygon","coordinates":[[[107.65143,47.83554],[107.65008,47.8339],[107.64843,47.8334],[107.64749,47.83267],[107.64776,47.83221],[107.64795,47.83202],[107.64823,47.83172],[107.64884,47.8314],[107.64929,47.8315],[107.64959,47.83195],[107.65013,47.83161],[107.65136,47.83253],[107.65177,47.83376],[107.65215,47.83383],[107.65292,47.83465],[107.65317,47.83512],[107.65258,47.83581],[107.65168,47.83575],[107.65143,47.83554]]]}},{"type":"Feature","properties":{},"geometry":{"type":"Polygon","coordinates":[[[106.85894,43.01759],[106.85937,43.01676],[106.85944,43.01607],[106.85938,43.01462],[106.85795,43.01222],[106.85689,43.01138],[106.85492,43.01061],[106.85635,43.00951],[106.85715,43.0082],[106.85781,43.0064],[106.85917,43.00436],[106.85953,43.00276],[106.85945,43.00181],[106.85912,43.00119],[106.85863,43.00028],[106.85791,42.99861],[106.85403,42.99886],[106.84768,42.99781],[106.84584,42.99709],[106.84446,42.99762],[106.84349,42.99755],[106.84112,42.99804],[106.83944,42.99897],[106.83862,43.00051],[106.83813,43.00574],[106.83854,43.00853],[106.84217,43.01099],[106.84595,43.0124],[106.84813,43.01203],[106.84758,43.01316],[106.84725,43.01399],[106.84727,43.01493],[106.84824,43.01611],[106.84959,43.01739],[106.85233,43.01987],[106.85431,43.02008],[106.85568,43.01984],[106.85796,43.01874],[106.85894,43.01759]]]}},{"type":"Feature","properties":{},"geometry":{"type":"Polygon","coordinates":[[[97.29523,46.20333],[97.29879,46.20649],[97.29997,46.20693],[97.30104,46.20699],[97.30154,46.2068],[97.30194,46.20644],[97.30259,46.20583],[97.30308,46.20542],[97.30072,46.20399],[97.29997,46.20414],[97.2996,46.20376],[97.29895,46.20321],[97.3009,46.20217],[97.3012,46.20093],[97.30023,46.20067],[97.29712,46.20175],[97.29624,46.20203],[97.29576,46.20241],[97.29523,46.20333]]]}},{"type":"Feature","properties":{},"geometry":{"type":"Polygon","coordinates":[[[105.9588,49.48677],[105.9589,49.48674],[105.95886,49.48668],[105.9588,49.4867],[105.9588,49.48677]]]}},{"type":"Feature","properties":{},"geometry":{"type":"Polygon","coordinates":[[[92.16299,49.79516],[92.16371,49.79533],[92.16478,49.79477],[92.16452,49.79396],[92.16299,49.79516]]]}},{"type":"Feature","properties":{},"geometry":{"type":"Polygon","coordinates":[[[107.22677,47.71446],[107.23359,47.71471],[107.23377,47.71559],[107.23379,47.71582],[107.23374,47.71611],[107.23371,47.7165],[107.23397,47.71886],[107.23401,47.71998],[107.23049,47.71993],[107.22647,47.71989],[107.22629,47.71717],[107.22622,47.71603],[107.22646,47.7153],[107.22677,47.71446]]]}},{"type":"Feature","properties":{},"geometry":{"type":"Polygon","coordinates":[[[104.08826,49.0921],[104.08591,49.09341],[104.08602,49.09373],[104.08616,49.09415],[104.08689,49.09448],[104.08793,49.09418],[104.08822,49.09377],[104.0883,49.09341],[104.08829,49.09299],[104.08826,49.0921]]]}},{"type":"Feature","properties":{},"geometry":{"type":"Polygon","coordinates":[[[104.10242,49.08572],[104.10273,49.08592],[104.10297,49.08603],[104.10327,49.08594],[104.1034,49.08571],[104.10342,49.08561],[104.10327,49.08558],[104.10319,49.08553],[104.10299,49.08545],[104.10271,49.08558],[104.10242,49.08572]]]}},{"type":"Feature","properties":{},"geometry":{"type":"Polygon","coordinates":[[[104.09106,49.08994],[104.09158,49.0903],[104.09206,49.09027],[104.09266,49.09009],[104.09286,49.08983],[104.09296,49.0897],[104.09301,49.08938],[104.09272,49.08908],[104.09232,49.08913],[104.09106,49.08994]]]}},{"type":"Feature","properties":{},"geometry":{"type":"Polygon","coordinates":[[[104.09075,49.09254],[104.08953,49.09305],[104.08916,49.09353],[104.09193,49.09365],[104.09148,49.09283],[104.09075,49.09254]]]}},{"type":"Feature","properties":{},"geometry":{"type":"Polygon","coordinates":[[[106.55034,47.78368],[106.55083,47.77891],[106.55314,47.77853],[106.55623,47.7786],[106.55652,47.77655],[106.56262,47.77652],[106.56231,47.7838],[106.55034,47.78368]]]}},{"type":"Feature","properties":{},"geometry":{"type":"Polygon","coordinates":[[[107.48417,47.80449],[107.48428,47.80448],[107.48435,47.80446],[107.48442,47.80442],[107.48448,47.80436],[107.48456,47.80428],[107.48453,47.8042],[107.48448,47.80413],[107.48441,47.80409],[107.4843,47.80406],[107.48419,47.80406],[107.484,47.80406],[107.48387,47.80411],[107.48381,47.80418],[107.48381,47.80425],[107.48382,47.80433],[107.48392,47.80439],[107.48398,47.80443],[107.48404,47.80447],[107.48409,47.80448],[107.48417,47.80449]]]}},{"type":"Feature","properties":{},"geometry":{"type":"Polygon","coordinates":[[[107.48399,47.80386],[107.4841,47.80386],[107.48417,47.80383],[107.48424,47.80379],[107.48433,47.80371],[107.48438,47.80362],[107.48443,47.80351],[107.48443,47.80336],[107.48442,47.80324],[107.48435,47.80319],[107.48429,47.80317],[107.48426,47.80311],[107.48424,47.80304],[107.48424,47.80295],[107.48422,47.80287],[107.48417,47.8028],[107.48408,47.80275],[107.48396,47.80273],[107.48374,47.80281],[107.48366,47.80291],[107.48354,47.80304],[107.48351,47.80317],[107.48357,47.80334],[107.48363,47.80346],[107.48363,47.80359],[107.48367,47.80368],[107.48374,47.80376],[107.4838,47.8038],[107.48387,47.80384],[107.48392,47.80385],[107.48399,47.80386]]]}},{"type":"Feature","properties":{},"geometry":{"type":"Polygon","coordinates":[[[107.0072,47.68504],[107.00739,47.6855],[107.00835,47.68568],[107.01021,47.68507],[107.01014,47.68421],[107.01115,47.68385],[107.01005,47.68319],[107.00955,47.68295],[107.00957,47.6825],[107.00911,47.68245],[107.00845,47.68291],[107.00707,47.6847],[107.0072,47.68504]]]}},{"type":"Feature","properties":{},"geometry":{"type":"Polygon","coordinates":[[[102.32432,43.11331],[102.33396,43.11143],[102.34063,43.10925],[102.3419,43.11007],[102.3446,43.10998],[102.34589,43.10922],[102.34767,43.10889],[102.34908,43.10902],[102.35108,43.10745],[102.35125,43.10665],[102.34814,43.09984],[102.35044,43.09901],[102.35052,43.09791],[102.34846,43.09448],[102.33355,43.09912],[102.33449,43.10147],[102.3355,43.10166],[102.33464,43.10554],[102.33271,43.10747],[102.3299,43.10852],[102.32404,43.10933],[102.32398,43.11173],[102.32331,43.11222],[102.32432,43.11331]]]}},{"type":"Feature","properties":{},"geometry":{"type":"Polygon","coordinates":[[[104.10923,49.02066],[104.11051,49.01904],[104.11484,49.01811],[104.11801,49.01773],[104.12042,49.0176],[104.12107,49.01721],[104.12539,49.01658],[104.1291,49.01669],[104.13042,49.01652],[104.13357,49.01548],[104.13669,49.01495],[104.13755,49.01506],[104.13916,49.01564],[104.14086,49.01817],[104.1414,49.02149],[104.14121,49.02246],[104.14024,49.02564],[104.13848,49.02667],[104.13723,49.02741],[104.13445,49.02858],[104.13143,49.02896],[104.13026,49.02931],[104.12984,49.03048],[104.12876,49.03062],[104.12607,49.03077],[104.12564,49.0312],[104.12111,49.03125],[104.11353,49.03285],[104.11207,49.03246],[104.11079,49.03179],[104.10816,49.02559],[104.10793,49.02516],[104.10831,49.02305],[104.10923,49.02066]]]}},{"type":"Feature","properties":{},"geometry":{"type":"Polygon","coordinates":[[[105.23069,43.60213],[105.23658,43.6068],[105.24068,43.60978],[105.2414,43.61123],[105.24401,43.61377],[105.25542,43.60926],[105.25186,43.60649],[105.24935,43.60806],[105.23593,43.60059],[105.23466,43.60154],[105.2323,43.59984],[105.23085,43.60118],[105.2306,43.60171],[105.23069,43.60213]]]}},{"type":"Feature","properties":{},"geometry":{"type":"Polygon","coordinates":[[[105.20078,43.59452],[105.18171,43.58594],[105.17837,43.5826],[105.18259,43.57855],[105.19439,43.58693],[105.20084,43.59037],[105.20411,43.59198],[105.20645,43.59354],[105.21064,43.59569],[105.21257,43.59733],[105.21283,43.59823],[105.21275,43.59886],[105.21222,43.59935],[105.21128,43.59962],[105.21081,43.59979],[105.20929,43.59958],[105.20779,43.59938],[105.19409,43.59875],[105.1936,43.59461],[105.19655,43.59567],[105.20131,43.59568],[105.20078,43.59452]]]}},{"type":"Feature","properties":{},"geometry":{"type":"Polygon","coordinates":[[[107.85942,47.26022],[107.87412,47.26021],[107.87544,47.26068],[107.87936,47.2605],[107.88007,47.26037],[107.88953,47.26218],[107.89134,47.26279],[107.8972,47.25857],[107.89683,47.25674],[107.89443,47.2525],[107.87836,47.2485],[107.86146,47.24824],[107.8594,47.24833],[107.85974,47.25033],[107.85954,47.25074],[107.85942,47.26022]]]}},{"type":"Feature","properties":{},"geometry":{"type":"Polygon","coordinates":[[[111.93871,43.70365],[111.93925,43.70257],[111.9402,43.70223],[111.94099,43.70271],[111.94171,43.70299],[111.94127,43.7041],[111.94082,43.7042],[111.93941,43.70373],[111.93871,43.70365]]]}},{"type":"Feature","properties":{},"geometry":{"type":"Polygon","coordinates":[[[111.91008,43.76605],[111.9107,43.76553],[111.91325,43.76609],[111.91505,43.76682],[111.91689,43.76619],[111.91795,43.76728],[111.92056,43.76754],[111.92118,43.76793],[111.91834,43.76822],[111.91767,43.769],[111.91765,43.76992],[111.91672,43.77055],[111.91505,43.77055],[111.91378,43.76944],[111.91361,43.76874],[111.91058,43.7686],[111.91039,43.76756],[111.91026,43.76693],[111.91008,43.76605]]]}},{"type":"Feature","properties":{},"geometry":{"type":"Polygon","coordinates":[[[109.81097,47.99733],[109.81128,47.99737],[109.81139,47.99738],[109.81138,47.99716],[109.81145,47.9971],[109.81197,47.99706],[109.81339,47.99704],[109.81444,47.99698],[109.81477,47.99698],[109.81487,47.99701],[109.81516,47.99711],[109.81558,47.99721],[109.81585,47.99732],[109.81606,47.99737],[109.81676,47.99732],[109.81708,47.99726],[109.8187,47.99687],[109.81878,47.99683],[109.81878,47.99668],[109.8187,47.99647],[109.81865,47.9964],[109.81856,47.99636],[109.81833,47.99638],[109.81812,47.99644],[109.81725,47.9966],[109.81714,47.99661],[109.81703,47.9966],[109.81696,47.99646],[109.817,47.99639],[109.81747,47.99622],[109.81769,47.99606],[109.81779,47.99602],[109.81799,47.99598],[109.81841,47.99592],[109.81893,47.99592],[109.81945,47.99585],[109.82019,47.99593],[109.82048,47.99586],[109.82059,47.99573],[109.82075,47.99564],[109.82106,47.99557],[109.82158,47.99554],[109.82178,47.99551],[109.82237,47.99557],[109.82268,47.99551],[109.82364,47.99539],[109.82384,47.99534],[109.82431,47.99517],[109.82481,47.99502],[109.82568,47.99465],[109.82575,47.9946],[109.82584,47.99456],[109.82643,47.99438],[109.8274,47.99394],[109.82769,47.99383],[109.82779,47.9938],[109.828,47.99381],[109.82821,47.99386],[109.82825,47.99393],[109.82824,47.99401],[109.82819,47.99407],[109.82793,47.99422],[109.82737,47.99459],[109.82692,47.99484],[109.82643,47.99503],[109.82588,47.9952],[109.82516,47.99557],[109.82509,47.99563],[109.82483,47.99595],[109.82476,47.99601],[109.82442,47.9962],[109.82392,47.99638],[109.82387,47.99645],[109.82385,47.99659],[109.82381,47.99666],[109.82373,47.99672],[109.82353,47.99679],[109.82331,47.99682],[109.82324,47.99688],[109.82315,47.99702],[109.82301,47.99713],[109.82291,47.99717],[109.82194,47.99736],[109.82178,47.99747],[109.82169,47.99751],[109.82156,47.99764],[109.82134,47.99767],[109.82132,47.99774],[109.82135,47.99789],[109.82134,47.99796],[109.82128,47.99802],[109.82137,47.99806],[109.82168,47.99812],[109.82206,47.99828],[109.82213,47.99834],[109.82218,47.99863],[109.82217,47.9987],[109.8221,47.99884],[109.82174,47.99918],[109.82165,47.99932],[109.82159,47.99939],[109.82141,47.99949],[109.8213,47.99951],[109.82086,47.99951],[109.82044,47.99946],[109.82,47.99944],[109.81978,47.9994],[109.81955,47.9994],[109.81933,47.99942],[109.819,47.99942],[109.81788,47.99956],[109.81708,47.99956],[109.81685,47.99954],[109.81676,47.9995],[109.81669,47.99945],[109.81658,47.99932],[109.81656,47.99924],[109.81658,47.99917],[109.81666,47.99912],[109.81707,47.99903],[109.817,47.99898],[109.81691,47.99893],[109.81681,47.9989],[109.81658,47.99889],[109.81636,47.99892],[109.81615,47.99897],[109.81593,47.99898],[109.81585,47.99893],[109.81583,47.99886],[109.81584,47.99879],[109.81589,47.99872],[109.81616,47.99861],[109.8163,47.99842],[109.81655,47.99828],[109.8166,47.99821],[109.81663,47.99807],[109.81662,47.998],[109.81653,47.99795],[109.81642,47.99792],[109.8162,47.99791],[109.81587,47.99795],[109.81547,47.99797],[109.81517,47.99806],[109.81484,47.99811],[109.81416,47.99815],[109.81371,47.99815],[109.81338,47.99817],[109.81294,47.99823],[109.81283,47.99825],[109.81264,47.99834],[109.81253,47.99835],[109.81173,47.99834],[109.81163,47.99836],[109.81149,47.99848],[109.8114,47.99853],[109.81129,47.99854],[109.81126,47.99848],[109.81125,47.99826],[109.81117,47.99821],[109.81088,47.99819],[109.81078,47.99816],[109.81074,47.99809],[109.81074,47.99802],[109.81084,47.99781],[109.81085,47.99774],[109.81083,47.99753],[109.81097,47.99733]]]}},{"type":"Feature","properties":{},"geometry":{"type":"Polygon","coordinates":[[[107.75337,45.98649],[107.74397,45.98663],[107.74366,45.9833],[107.74763,45.98077],[107.75154,45.97877],[107.75364,45.97842],[107.7557,45.97866],[107.75921,45.98038],[107.76131,45.98113],[107.76153,45.98268],[107.75993,45.98481],[107.759,45.98569],[107.7554,45.98416],[107.75337,45.98649]]]}},{"type":"Feature","properties":{},"geometry":{"type":"Polygon","coordinates":[[[115.0331,45.93226],[115.03033,45.93223],[115.02973,45.93105],[115.03306,45.92832],[115.03222,45.92248],[115.03988,45.92254],[115.03967,45.92441],[115.0422,45.92456],[115.04203,45.92678],[115.03851,45.92948],[115.0331,45.93226]]]}},{"type":"Feature","properties":{},"geometry":{"type":"Polygon","coordinates":[[[107.68465,47.26378],[107.68501,47.26296],[107.68622,47.26284],[107.6855,47.26135],[107.68397,47.26096],[107.68212,47.26081],[107.68126,47.26107],[107.6807,47.26186],[107.68122,47.26251],[107.68317,47.26366],[107.6842,47.26384],[107.68465,47.26378]]]}},{"type":"Feature","properties":{},"geometry":{"type":"Polygon","coordinates":[[[107.69067,47.26413],[107.68971,47.263],[107.68986,47.2621],[107.68755,47.25992],[107.68622,47.25859],[107.68555,47.25643],[107.68438,47.25677],[107.68524,47.25914],[107.6871,47.26086],[107.68846,47.26208],[107.68878,47.26313],[107.68982,47.26444],[107.69067,47.26413]]]}},{"type":"Feature","properties":{},"geometry":{"type":"Polygon","coordinates":[[[107.71363,47.25831],[107.71478,47.25771],[107.71336,47.25631],[107.71347,47.25303],[107.71216,47.25271],[107.70809,47.25295],[107.70604,47.25402],[107.7094,47.25608],[107.71363,47.25831]]]}},{"type":"Feature","properties":{},"geometry":{"type":"Polygon","coordinates":[[[107.64227,47.23005],[107.64178,47.22806],[107.64078,47.22813],[107.64043,47.22986],[107.64147,47.23009],[107.64227,47.23005]]]}},{"type":"Feature","properties":{},"geometry":{"type":"Polygon","coordinates":[[[107.64402,47.23391],[107.64372,47.23309],[107.64296,47.23287],[107.64374,47.2322],[107.64468,47.23284],[107.64502,47.23307],[107.64519,47.23386],[107.64402,47.23391]]]}},{"type":"Feature","properties":{},"geometry":{"type":"Polygon","coordinates":[[[107.59232,47.20337],[107.59339,47.20302],[107.5921,47.20174],[107.59157,47.20183],[107.59165,47.20237],[107.59221,47.2031],[107.592,47.20315],[107.59217,47.20339],[107.59232,47.20337]]]}},{"type":"Feature","properties":{},"geometry":{"type":"Polygon","coordinates":[[[107.59667,47.20508],[107.59913,47.20426],[107.59809,47.20344],[107.59598,47.20414],[107.59607,47.20455],[107.59667,47.20508]]]}},{"type":"Feature","properties":{},"geometry":{"type":"Polygon","coordinates":[[[107.59502,47.20668],[107.59705,47.20664],[107.59638,47.20519],[107.59472,47.20536],[107.59426,47.20584],[107.59502,47.20668]]]}},{"type":"Feature","properties":{},"geometry":{"type":"Polygon","coordinates":[[[107.60082,47.21083],[107.59746,47.20821],[107.59492,47.20781],[107.59435,47.20829],[107.59416,47.20929],[107.59438,47.21025],[107.59468,47.21057],[107.59563,47.21144],[107.59681,47.21161],[107.60076,47.21121],[107.60082,47.21083]]]}},{"type":"Feature","properties":{},"geometry":{"type":"Polygon","coordinates":[[[107.62362,47.2238],[107.62257,47.22245],[107.6216,47.22066],[107.6191,47.21915],[107.61631,47.21834],[107.61514,47.21908],[107.61689,47.22038],[107.61891,47.22183],[107.6194,47.22343],[107.62082,47.22483],[107.62204,47.22527],[107.62312,47.22552],[107.62395,47.2254],[107.62467,47.2251],[107.62458,47.2243],[107.62362,47.2238]]]}},{"type":"Feature","properties":{},"geometry":{"type":"Polygon","coordinates":[[[108.24247,45.86435],[108.23879,45.86329],[108.2377,45.86162],[108.2379,45.86153],[108.23812,45.86142],[108.23897,45.86102],[108.23833,45.85887],[108.24409,45.85803],[108.24409,45.86076],[108.24662,45.86082],[108.24656,45.86288],[108.24388,45.86421],[108.24247,45.86435]]]}},{"type":"Feature","properties":{},"geometry":{"type":"Polygon","coordinates":[[[108.93735,45.92315],[108.93895,45.92369],[108.9392,45.92408],[108.93904,45.92504],[108.9394,45.92578],[108.9399,45.92642],[108.93891,45.92686],[108.93627,45.9269],[108.93579,45.92664],[108.9345,45.92568],[108.93495,45.92469],[108.93501,45.92362],[108.93735,45.92315]]]}},{"type":"Feature","properties":{},"geometry":{"type":"Polygon","coordinates":[[[109.44442,46.2787],[109.44656,46.27784],[109.44414,46.27509],[109.44203,46.27555],[109.44147,46.27648],[109.44252,46.27778],[109.44348,46.27842],[109.44442,46.2787]]]}},{"type":"Feature","properties":{},"geometry":{"type":"Polygon","coordinates":[[[109.41857,46.27459],[109.42368,46.27138],[109.42242,46.26909],[109.42358,46.26662],[109.41932,46.26527],[109.4191,46.26392],[109.41803,46.26387],[109.4168,46.26421],[109.41522,46.26593],[109.41463,46.26719],[109.41568,46.26921],[109.41691,46.27142],[109.41527,46.2733],[109.41536,46.27432],[109.41611,46.2749],[109.41709,46.27512],[109.41852,46.2749],[109.41857,46.27459]]]}},{"type":"Feature","properties":{},"geometry":{"type":"Polygon","coordinates":[[[109.44743,46.23671],[109.44839,46.23434],[109.44521,46.2327],[109.44369,46.23383],[109.44317,46.23482],[109.44343,46.23527],[109.44497,46.23589],[109.44615,46.23601],[109.44743,46.23671]]]}},{"type":"Feature","properties":{},"geometry":{"type":"Polygon","coordinates":[[[109.36371,46.24941],[109.36359,46.24853],[109.36426,46.24748],[109.36792,46.24473],[109.36984,46.24267],[109.37246,46.24152],[109.3744,46.24168],[109.37572,46.24224],[109.37487,46.24398],[109.37147,46.24703],[109.36996,46.24655],[109.36501,46.2496],[109.36371,46.24941]]]}},{"type":"Feature","properties":{},"geometry":{"type":"Polygon","coordinates":[[[109.3818,46.28889],[109.38153,46.28782],[109.38138,46.28663],[109.38156,46.28592],[109.38187,46.2856],[109.38235,46.28629],[109.38366,46.28615],[109.38397,46.28641],[109.3838,46.28685],[109.38346,46.28709],[109.38405,46.28834],[109.38296,46.28896],[109.3818,46.28889]]]}},{"type":"Feature","properties":{},"geometry":{"type":"Polygon","coordinates":[[[109.27453,46.37493],[109.27593,46.37503],[109.27896,46.37462],[109.27982,46.37398],[109.28013,46.37263],[109.27942,46.37198],[109.27764,46.37215],[109.27506,46.37281],[109.27343,46.37376],[109.27315,46.37405],[109.27352,46.37451],[109.27453,46.37493]]]}},{"type":"Feature","properties":{},"geometry":{"type":"Polygon","coordinates":[[[109.27276,46.36995],[109.28356,46.36994],[109.28412,46.36776],[109.28391,46.36389],[109.28147,46.36362],[109.27721,46.36436],[109.27268,46.36748],[109.27276,46.36995]]]}},{"type":"Feature","properties":{},"geometry":{"type":"Polygon","coordinates":[[[109.29038,46.36362],[109.29786,46.36362],[109.29852,46.36661],[109.29838,46.3685],[109.29754,46.37019],[109.293,46.37332],[109.29059,46.37295],[109.28742,46.37158],[109.28719,46.37021],[109.2892,46.36733],[109.28996,46.36511],[109.29038,46.36362]]]}},{"type":"Feature","properties":{},"geometry":{"type":"Polygon","coordinates":[[[110.73466,44.708],[110.73318,44.70813],[110.73261,44.70884],[110.73236,44.70969],[110.7327,44.71044],[110.73385,44.71105],[110.73768,44.71105],[110.73822,44.71063],[110.73793,44.70982],[110.73723,44.70901],[110.73696,44.70869],[110.73466,44.708]]]}},{"type":"Feature","properties":{},"geometry":{"type":"Polygon","coordinates":[[[110.74057,44.70488],[110.74146,44.70299],[110.74165,44.70258],[110.74345,44.70074],[110.7445,44.7004],[110.74534,44.70042],[110.74568,44.70069],[110.74689,44.70166],[110.74754,44.70303],[110.74735,44.70373],[110.74719,44.70434],[110.74558,44.70604],[110.74399,44.7071],[110.74309,44.70723],[110.74247,44.70699],[110.7412,44.7056],[110.74057,44.70488]]]}},{"type":"Feature","properties":{},"geometry":{"type":"Polygon","coordinates":[[[97.5879,48.6594],[97.59033,48.65995],[97.59076,48.66008],[97.59125,48.66024],[97.59031,48.66175],[97.58981,48.66242],[97.589,48.66302],[97.58873,48.66351],[97.58774,48.66378],[97.58716,48.66362],[97.58674,48.66342],[97.58463,48.66209],[97.5879,48.6594]]]}},{"type":"Feature","properties":{},"geometry":{"type":"Polygon","coordinates":[[[107.24693,46.94571],[107.24902,46.94554],[107.25021,46.94544],[107.25378,46.94533],[107.25404,46.94507],[107.25323,46.94422],[107.25173,46.94324],[107.24775,46.94194],[107.24687,46.94221],[107.24665,46.94247],[107.24607,46.94318],[107.24606,46.94356],[107.24602,46.94494],[107.24628,46.94524],[107.24693,46.94571]]]}},{"type":"Feature","properties":{},"geometry":{"type":"Polygon","coordinates":[[[107.23981,46.93118],[107.24157,46.93202],[107.24142,46.93292],[107.24199,46.93399],[107.24269,46.93471],[107.24257,46.93562],[107.24367,46.93597],[107.24408,46.9361],[107.24643,46.93667],[107.24673,46.93692],[107.2473,46.93739],[107.24938,46.93842],[107.25079,46.93945],[107.25105,46.93992],[107.25077,46.94063],[107.24833,46.94051],[107.24546,46.93936],[107.24184,46.93809],[107.24021,46.93729],[107.23954,46.93618],[107.23872,46.93502],[107.2371,46.934],[107.23636,46.93333],[107.23611,46.93253],[107.23628,46.93217],[107.2377,46.93067],[107.23881,46.93062],[107.23981,46.93118]]]}},{"type":"Feature","properties":{},"geometry":{"type":"Polygon","coordinates":[[[107.23076,46.93104],[107.22963,46.93054],[107.22885,46.92982],[107.22909,46.92822],[107.22952,46.92789],[107.23051,46.92772],[107.23146,46.92782],[107.23229,46.92806],[107.23267,46.92829],[107.2324,46.92903],[107.23269,46.92969],[107.23189,46.93065],[107.23133,46.93095],[107.23104,46.93104],[107.23076,46.93104]]]}},{"type":"Feature","properties":{},"geometry":{"type":"Polygon","coordinates":[[[107.28821,46.97441],[107.28657,46.97303],[107.2863,46.9721],[107.28682,46.97086],[107.28777,46.97036],[107.28902,46.97027],[107.2898,46.97058],[107.29114,46.97161],[107.29279,46.97278],[107.29143,46.9741],[107.29021,46.97392],[107.28957,46.97447],[107.28852,46.97459],[107.28821,46.97441]]]}},{"type":"Feature","properties":{},"geometry":{"type":"Polygon","coordinates":[[[94.97087,47.82372],[94.97204,47.82485],[94.97411,47.82491],[94.9746,47.82544],[94.97803,47.82682],[94.97939,47.82633],[94.98063,47.82622],[94.98127,47.82785],[94.98312,47.82763],[94.9846,47.82493],[94.98746,47.82448],[94.98966,47.82396],[94.98992,47.82241],[94.98987,47.82115],[94.98995,47.82016],[94.99044,47.81883],[94.99044,47.81784],[94.98977,47.81755],[94.98859,47.81751],[94.98699,47.81841],[94.98534,47.81924],[94.98334,47.81972],[94.98295,47.82001],[94.98207,47.81951],[94.98087,47.81946],[94.97829,47.81993],[94.97677,47.82055],[94.97499,47.82082],[94.97344,47.82101],[94.97287,47.8215],[94.9733,47.82225],[94.97087,47.82372]]]}},{"type":"Feature","properties":{},"geometry":{"type":"Polygon","coordinates":[[[94.98447,47.81902],[94.98302,47.81837],[94.98241,47.81722],[94.98224,47.81534],[94.98266,47.8139],[94.98286,47.8129],[94.98347,47.81223],[94.98375,47.81163],[94.98472,47.81107],[94.9858,47.81029],[94.98742,47.80984],[94.98852,47.80874],[94.98933,47.80861],[94.99065,47.80877],[94.99178,47.80962],[94.99178,47.81015],[94.99209,47.81022],[94.99252,47.81007],[94.9927,47.80976],[94.99348,47.80952],[94.99434,47.80842],[94.99565,47.80902],[94.99548,47.80961],[94.99608,47.80961],[94.99617,47.80985],[94.99596,47.81051],[94.99661,47.81143],[94.99683,47.81159],[94.99715,47.81194],[94.99621,47.81397],[94.99603,47.81442],[94.99486,47.81521],[94.99388,47.81677],[94.99223,47.81783],[94.99054,47.81755],[94.98983,47.81724],[94.98919,47.81711],[94.98757,47.81777],[94.98658,47.81813],[94.98587,47.81823],[94.98447,47.81902]]]}},{"type":"Feature","properties":{},"geometry":{"type":"Polygon","coordinates":[[[95.00825,47.83233],[95.00998,47.83188],[95.01075,47.8307],[95.01067,47.83005],[95.01033,47.82944],[95.00938,47.82924],[95.00868,47.8291],[95.00929,47.82756],[95.00748,47.82701],[95.00592,47.82859],[95.00679,47.82972],[95.0053,47.83061],[95.00481,47.83158],[95.0054,47.83253],[95.00642,47.83258],[95.00715,47.83245],[95.00825,47.83233]]]}},{"type":"Feature","properties":{},"geometry":{"type":"Polygon","coordinates":[[[112.86452,46.74196],[112.8651,46.74334],[112.8655,46.74373],[112.86619,46.74477],[112.86648,46.74503],[112.86666,46.74511],[112.86691,46.74512],[112.8686,46.74478],[112.86919,46.74458],[112.86942,46.7444],[112.86895,46.74394],[112.87245,46.74246],[112.8732,46.74201],[112.8723,46.74088],[112.86688,46.7385],[112.86684,46.74089],[112.86599,46.74107],[112.86563,46.74162],[112.86452,46.74196]]]}},{"type":"Feature","properties":{},"geometry":{"type":"Polygon","coordinates":[[[112.85884,46.73211],[112.85874,46.73232],[112.85845,46.73271],[112.85786,46.73295],[112.8576,46.7331],[112.85748,46.73331],[112.85747,46.73354],[112.85765,46.73371],[112.85792,46.73383],[112.85823,46.7342],[112.85874,46.73445],[112.85934,46.73455],[112.85966,46.73457],[112.86028,46.73455],[112.86089,46.73447],[112.86198,46.73408],[112.86263,46.73413],[112.86293,46.73421],[112.86324,46.73425],[112.86355,46.73422],[112.8639,46.73413],[112.86396,46.73451],[112.86408,46.73466],[112.86466,46.73469],[112.86501,46.73463],[112.86554,46.7344],[112.86576,46.73426],[112.86593,46.73407],[112.86605,46.73387],[112.86613,46.73366],[112.86601,46.73299],[112.86547,46.73253],[112.86507,46.73216],[112.86445,46.7319],[112.86345,46.73146],[112.86257,46.73121],[112.86115,46.73111],[112.85981,46.73103],[112.85933,46.73111],[112.85915,46.73123],[112.85888,46.7316],[112.85884,46.73211]]]}},{"type":"Feature","properties":{},"geometry":{"type":"Polygon","coordinates":[[[112.85214,46.73618],[112.85189,46.73631],[112.85146,46.73643],[112.85052,46.73656],[112.8499,46.73644],[112.8493,46.73605],[112.84883,46.73565],[112.84823,46.73531],[112.84633,46.73475],[112.84544,46.73436],[112.84508,46.73411],[112.84488,46.73379],[112.84496,46.73313],[112.84531,46.73248],[112.84545,46.73215],[112.8458,46.73171],[112.84611,46.73143],[112.8468,46.73094],[112.84737,46.73061],[112.848,46.73038],[112.84826,46.73036],[112.85002,46.73051],[112.85125,46.73078],[112.85201,46.73086],[112.85225,46.7308],[112.85267,46.73062],[112.85317,46.7306],[112.8534,46.73065],[112.85359,46.73076],[112.85371,46.73111],[112.85413,46.73129],[112.85429,46.73142],[112.85437,46.73159],[112.85438,46.73242],[112.85399,46.73365],[112.85345,46.73461],[112.85394,46.73484],[112.85484,46.73487],[112.85518,46.73494],[112.85541,46.7352],[112.8559,46.7353],[112.85601,46.73546],[112.85602,46.73564],[112.85598,46.7358],[112.8559,46.73597],[112.85566,46.73628],[112.85521,46.73645],[112.85447,46.73655],[112.8542,46.73652],[112.85395,46.73644],[112.85375,46.73633],[112.85329,46.73593],[112.8531,46.7358],[112.85283,46.7358],[112.85268,46.73584],[112.85244,46.7359],[112.85225,46.73602],[112.85214,46.73618]]]}},{"type":"Feature","properties":{},"geometry":{"type":"Polygon","coordinates":[[[108.9876,43.7456],[108.99869,43.74519],[108.9996,43.72321],[108.98694,43.71997],[108.97601,43.71552],[108.9745,43.70775],[108.96277,43.70693],[108.96145,43.71677],[108.94595,43.71412],[108.93742,43.72733],[108.9419,43.72888],[108.94139,43.73754],[108.96168,43.74092],[108.96116,43.74408],[108.97285,43.74536],[108.9876,43.7456]]]}},{"type":"Feature","properties":{},"geometry":{"type":"Polygon","coordinates":[[[109.02506,43.7608],[109.02551,43.75538],[109.03285,43.75285],[109.05273,43.75712],[109.06674,43.76307],[109.07266,43.76634],[109.06775,43.77647],[109.06166,43.7804],[109.04635,43.78191],[109.04267,43.7764],[109.03457,43.77446],[109.02867,43.76974],[109.02506,43.7608]]]}},{"type":"Feature","properties":{},"geometry":{"type":"Polygon","coordinates":[[[109.18176,43.84526],[109.18666,43.84609],[109.18654,43.84843],[109.18465,43.84989],[109.18142,43.84994],[109.18176,43.84526]]]}},{"type":"Feature","properties":{},"geometry":{"type":"Polygon","coordinates":[[[108.61965,43.61121],[108.62547,43.61247],[108.63615,43.60816],[108.64047,43.60604],[108.64181,43.61184],[108.64547,43.61111],[108.64289,43.60235],[108.64727,43.59664],[108.6588,43.59404],[108.65415,43.58954],[108.6471,43.58972],[108.61786,43.58682],[108.61726,43.5977],[108.61771,43.59849],[108.61721,43.60534],[108.61965,43.61121]]]}},{"type":"Feature","properties":{},"geometry":{"type":"Polygon","coordinates":[[[109.04084,43.76638],[109.05038,43.7624],[109.05205,43.7629],[109.0528,43.76345],[109.0519,43.76546],[109.05194,43.76709],[109.05237,43.76857],[109.05315,43.76943],[109.05166,43.77138],[109.04434,43.77405],[109.03976,43.76819],[109.03985,43.76701],[109.04084,43.76638]]]}},{"type":"Feature","properties":{},"geometry":{"type":"Polygon","coordinates":[[[108.97072,43.73756],[108.9715,43.73956],[108.97312,43.74053],[108.9779,43.74199],[108.9814,43.74356],[108.98431,43.74406],[108.9867,43.74402],[108.99127,43.74273],[108.99238,43.74204],[108.9954,43.74314],[108.99683,43.74325],[108.9975,43.74292],[108.99933,43.74188],[108.99926,43.74089],[108.99814,43.74013],[108.9958,43.73957],[108.99221,43.73986],[108.99157,43.73758],[108.99073,43.73689],[108.98913,43.73676],[108.98591,43.73737],[108.98277,43.73751],[108.98013,43.73633],[108.97805,43.735],[108.97377,43.73473],[108.97218,43.73468],[108.9711,43.73605],[108.97074,43.73702],[108.97072,43.73756]]]}},{"type":"Feature","properties":{},"geometry":{"type":"Polygon","coordinates":[[[108.95758,43.73294],[108.96015,43.7342],[108.96127,43.73606],[108.96192,43.73688],[108.96293,43.73734],[108.96444,43.73751],[108.96541,43.7375],[108.96625,43.73705],[108.96691,43.73638],[108.96823,43.73602],[108.9691,43.73428],[108.96675,43.73185],[108.96456,43.73081],[108.96145,43.73019],[108.95953,43.72936],[108.95838,43.72953],[108.95734,43.73084],[108.95729,43.73252],[108.95758,43.73294]]]}},{"type":"Feature","properties":{},"geometry":{"type":"Polygon","coordinates":[[[105.39994,43.65973],[105.41376,43.66227],[105.41642,43.65782],[105.4202,43.65609],[105.41978,43.65534],[105.41564,43.65553],[105.40789,43.65289],[105.40255,43.65362],[105.39994,43.65973]]]}},{"type":"Feature","properties":{},"geometry":{"type":"Polygon","coordinates":[[[105.72757,43.15007],[105.72807,43.15084],[105.72834,43.151],[105.72856,43.15112],[105.72824,43.15139],[105.72815,43.15155],[105.7283,43.15171],[105.72995,43.15261],[105.73157,43.15296],[105.73308,43.15534],[105.73367,43.15696],[105.73617,43.15644],[105.73614,43.15628],[105.73658,43.15608],[105.73515,43.15457],[105.73568,43.15423],[105.73341,43.1521],[105.7331,43.1515],[105.73204,43.1509],[105.73123,43.15043],[105.73039,43.14998],[105.72904,43.1497],[105.72777,43.14973],[105.72757,43.15007]]]}}]}